start=new Date('2022-02-08T00:00:00.000Z').valueOf();
sats=[{"ARG_OF_PERICENTER":"59.6988","MEAN_MOTION":"15.06376360","PERIOD":"95.594","MEAN_ELEMENT_THEORY":"SGP4","OBJECT_NAME":"STARLINK-1476","APOAPSIS":"548.423","TLE_LINE2":"2 45753  53.0553  71.1512 0001642  59.6988 300.4163 15.06376360 91714","SITE":"AFETR","GP_ID":"195478788","ELEMENT_SET_NO":"999","ECCENTRICITY":"0.00016420","NORAD_CAT_ID":"45753","EPOCH":"2022-02-07T10:19:22.977984","FILE":"3294379","MEAN_MOTION_DOT":"-0.00000959","OBJECT_TYPE":"PAYLOAD","DECAY_DATE":null,"MEAN_MOTION_DDOT":"0.0000000000000","INCLINATION":"53.0553","RA_OF_ASC_NODE":"71.1512","TIME_SYSTEM":"UTC","REF_FRAME":"TEME","PERIAPSIS":"546.149","EPHEMERIS_TYPE":"0","RCS_SIZE":"LARGE","MEAN_ANOMALY":"300.4163","TLE_LINE1":"1 45753U 20038Z   22038.43012706 -.00000959  00000-0 -45534-4 0  9995","BSTAR":"-0.00004553400000","COUNTRY_CODE":"US","OBJECT_ID":"2020-038Z","LAUNCH_DATE":"2020-06-13","CENTER_NAME":"EARTH","CLASSIFICATION_TYPE":"U","REV_AT_EPOCH":"9171","SEMIMAJOR_AXIS":"6925.421"},{"COUNTRY_CODE":"US","OBJECT_ID":"2020-038AA","BSTAR":"-0.00010563000000","TLE_LINE1":"1 45754U 20038AA  22038.56650998 -.00001853  00000-0 -10563-3 0  9998","MEAN_ANOMALY":"300.3021","SEMIMAJOR_AXIS":"6925.427","REV_AT_EPOCH":"9269","LAUNCH_DATE":"2020-06-13","CLASSIFICATION_TYPE":"U","CENTER_NAME":"EARTH","RA_OF_ASC_NODE":"70.5328","RCS_SIZE":"LARGE","EPHEMERIS_TYPE":"0","PERIAPSIS":"546.147","REF_FRAME":"TEME","TIME_SYSTEM":"UTC","MEAN_MOTION_DOT":"-0.00001853","EPOCH":"2022-02-07T13:35:46.462272","FILE":"3294439","NORAD_CAT_ID":"45754","ECCENTRICITY":"0.00016530","ELEMENT_SET_NO":"999","GP_ID":"195485725","INCLINATION":"53.0536","MEAN_MOTION_DDOT":"0.0000000000000","DECAY_DATE":null,"OBJECT_TYPE":"PAYLOAD","PERIOD":"95.594","MEAN_MOTION":"15.06374385","ARG_OF_PERICENTER":"59.8131","SITE":"AFETR","TLE_LINE2":"2 45754  53.0536  70.5328 0001653  59.8131 300.3021 15.06374385 92693","APOAPSIS":"548.437","OBJECT_NAME":"STARLINK-1477","MEAN_ELEMENT_THEORY":"SGP4"},{"MEAN_MOTION_DDOT":"0.0000000000000","DECAY_DATE":null,"INCLINATION":"53.0550","OBJECT_TYPE":"PAYLOAD","NORAD_CAT_ID":"45755","MEAN_MOTION_DOT":"-0.00000094","EPOCH":"2022-02-07T07:40:07.435200","FILE":"3294379","ECCENTRICITY":"0.00013640","ELEMENT_SET_NO":"999","GP_ID":"195478286","OBJECT_NAME":"STARLINK-1478","TLE_LINE2":"2 45755  53.0550  71.6493 0001364  54.9043 305.2073 15.06401431 91684","SITE":"AFETR","APOAPSIS":"548.154","MEAN_ELEMENT_THEORY":"SGP4","ARG_OF_PERICENTER":"54.9043","PERIOD":"95.592","MEAN_MOTION":"15.06401431","REV_AT_EPOCH":"9168","CENTER_NAME":"EARTH","LAUNCH_DATE":"2020-06-13","CLASSIFICATION_TYPE":"U","SEMIMAJOR_AXIS":"6925.344","MEAN_ANOMALY":"305.2073","OBJECT_ID":"2020-038AB","COUNTRY_CODE":"US","BSTAR":"0.00001255000000","TLE_LINE1":"1 45755U 20038AB  22038.31953050 -.00000094  00000-0  12550-4 0  9991","EPHEMERIS_TYPE":"0","PERIAPSIS":"546.265","RCS_SIZE":"LARGE","TIME_SYSTEM":"UTC","REF_FRAME":"TEME","RA_OF_ASC_NODE":"71.6493"},{"MEAN_ANOMALY":"297.1590","TLE_LINE1":"1 45756U 20038AC  22038.51490821 -.00001049  00000-0 -51557-4 0  9998","BSTAR":"-0.00005155700000","COUNTRY_CODE":"US","OBJECT_ID":"2020-038AC","LAUNCH_DATE":"2020-06-13","CENTER_NAME":"EARTH","CLASSIFICATION_TYPE":"U","REV_AT_EPOCH":"9283","SEMIMAJOR_AXIS":"6925.440","RA_OF_ASC_NODE":"70.7670","PERIAPSIS":"546.212","EPHEMERIS_TYPE":"0","RCS_SIZE":"LARGE","TIME_SYSTEM":"UTC","REF_FRAME":"TEME","NORAD_CAT_ID":"45756","FILE":"3294197","EPOCH":"2022-02-07T12:21:28.069344","MEAN_MOTION_DOT":"-0.00001049","GP_ID":"195454946","ELEMENT_SET_NO":"999","ECCENTRICITY":"0.00015780","DECAY_DATE":null,"MEAN_MOTION_DDOT":"0.0000000000000","INCLINATION":"53.0543","OBJECT_TYPE":"PAYLOAD","ARG_OF_PERICENTER":"62.9560","MEAN_MOTION":"15.06370062","PERIOD":"95.594","OBJECT_NAME":"STARLINK-1484","APOAPSIS":"548.398","TLE_LINE2":"2 45756  53.0543  70.7670 0001578  62.9560 297.1590 15.06370062 92830","SITE":"AFETR","MEAN_ELEMENT_THEORY":"SGP4"},{"BSTAR":"0.00028509000000","COUNTRY_CODE":"US","OBJECT_ID":"2020-038AD","TLE_LINE1":"1 45757U 20038AD  22038.46698405  .00003966  00000-0  28509-3 0  9999","MEAN_ANOMALY":"295.0878","SEMIMAJOR_AXIS":"6925.386","REV_AT_EPOCH":"9170","CENTER_NAME":"EARTH","LAUNCH_DATE":"2020-06-13","CLASSIFICATION_TYPE":"U","RA_OF_ASC_NODE":"70.9809","REF_FRAME":"TEME","TIME_SYSTEM":"UTC","RCS_SIZE":"LARGE","EPHEMERIS_TYPE":"0","PERIAPSIS":"546.145","ECCENTRICITY":"0.00015980","GP_ID":"195479288","ELEMENT_SET_NO":"999","MEAN_MOTION_DOT":"0.00003966","EPOCH":"2022-02-07T11:12:27.421920","FILE":"3294379","NORAD_CAT_ID":"45757","OBJECT_TYPE":"PAYLOAD","INCLINATION":"53.0539","MEAN_MOTION_DDOT":"0.0000000000000","DECAY_DATE":null,"PERIOD":"95.593","MEAN_MOTION":"15.06387690","ARG_OF_PERICENTER":"65.0277","MEAN_ELEMENT_THEORY":"SGP4","SITE":"AFETR","TLE_LINE2":"2 45757  53.0539  70.9809 0001598  65.0277 295.0878 15.06387690 91709","APOAPSIS":"548.358","OBJECT_NAME":"STARLINK-1486"},{"OBJECT_NAME":"STARLINK-1487","APOAPSIS":"548.386","SITE":"AFETR","TLE_LINE2":"2 45758  53.0539  71.0104 0001593  59.7356 300.3791 15.06377509 91705","MEAN_ELEMENT_THEORY":"SGP4","ARG_OF_PERICENTER":"59.7356","MEAN_MOTION":"15.06377509","PERIOD":"95.594","MEAN_MOTION_DDOT":"0.0000000000000","DECAY_DATE":null,"INCLINATION":"53.0539","OBJECT_TYPE":"PAYLOAD","NORAD_CAT_ID":"45758","EPOCH":"2022-02-07T11:01:50.991744","FILE":"3294379","MEAN_MOTION_DOT":"0.00000599","ELEMENT_SET_NO":"999","GP_ID":"195479539","ECCENTRICITY":"0.00015930","PERIAPSIS":"546.179","EPHEMERIS_TYPE":"0","RCS_SIZE":"LARGE","TIME_SYSTEM":"UTC","REF_FRAME":"TEME","RA_OF_ASC_NODE":"71.0104","LAUNCH_DATE":"2020-06-13","CLASSIFICATION_TYPE":"U","CENTER_NAME":"EARTH","REV_AT_EPOCH":"9170","SEMIMAJOR_AXIS":"6925.417","MEAN_ANOMALY":"300.3791","TLE_LINE1":"1 45758U 20038AE  22038.45961796  .00000599  00000-0  59133-4 0  9992","BSTAR":"0.00005913300000","COUNTRY_CODE":"US","OBJECT_ID":"2020-038AE"},{"RA_OF_ASC_NODE":"70.7919","TIME_SYSTEM":"UTC","REF_FRAME":"TEME","PERIAPSIS":"546.156","EPHEMERIS_TYPE":"0","RCS_SIZE":"LARGE","MEAN_ANOMALY":"302.8774","TLE_LINE1":"1 45759U 20038AF  22038.50752818  .00000297  00000-0  38825-4 0  9992","COUNTRY_CODE":"US","BSTAR":"0.00003882500000","OBJECT_ID":"2020-038AF","CLASSIFICATION_TYPE":"U","LAUNCH_DATE":"2020-06-13","CENTER_NAME":"EARTH","REV_AT_EPOCH":"9171","SEMIMAJOR_AXIS":"6925.397","ARG_OF_PERICENTER":"57.2369","MEAN_MOTION":"15.06384131","PERIOD":"95.593","MEAN_ELEMENT_THEORY":"SGP4","OBJECT_NAME":"STARLINK-1493","APOAPSIS":"548.368","SITE":"AFETR","TLE_LINE2":"2 45759  53.0540  70.7919 0001597  57.2369 302.8774 15.06384131 91717","GP_ID":"195477787","ELEMENT_SET_NO":"999","ECCENTRICITY":"0.00015970","NORAD_CAT_ID":"45759","FILE":"3294379","EPOCH":"2022-02-07T12:10:50.434752","MEAN_MOTION_DOT":"0.00000297","OBJECT_TYPE":"PAYLOAD","DECAY_DATE":null,"MEAN_MOTION_DDOT":"0.0000000000000","INCLINATION":"53.0540"},{"ELEMENT_SET_NO":"999","GP_ID":"195478537","ECCENTRICITY":"0.00019180","EPOCH":"2022-02-07T12:16:09.847776","FILE":"3294379","MEAN_MOTION_DOT":"-0.00002368","NORAD_CAT_ID":"45760","OBJECT_TYPE":"PAYLOAD","INCLINATION":"53.0550","DECAY_DATE":null,"MEAN_MOTION_DDOT":"0.0000000000000","MEAN_MOTION":"15.06379697","PERIOD":"95.593","ARG_OF_PERICENTER":"53.8969","MEAN_ELEMENT_THEORY":"SGP4","APOAPSIS":"548.604","TLE_LINE2":"2 45760  53.0550  70.7912 0001918  53.8969 306.2197 15.06379697 91727","SITE":"AFETR","OBJECT_NAME":"STARLINK-1494","TLE_LINE1":"1 45760U 20038AG  22038.51122509 -.00002368  00000-0 -14016-3 0  9991","OBJECT_ID":"2020-038AG","COUNTRY_CODE":"US","BSTAR":"-0.00014016000000","MEAN_ANOMALY":"306.2197","SEMIMAJOR_AXIS":"6925.411","CENTER_NAME":"EARTH","LAUNCH_DATE":"2020-06-13","CLASSIFICATION_TYPE":"U","REV_AT_EPOCH":"9172","RA_OF_ASC_NODE":"70.7912","REF_FRAME":"TEME","TIME_SYSTEM":"UTC","RCS_SIZE":"LARGE","PERIAPSIS":"545.947","EPHEMERIS_TYPE":"0"},{"MEAN_ANOMALY":"318.4259","TLE_LINE1":"1 45761U 20038AH  22038.63612112  .00247666  00000-0  26200-2 0  9996","COUNTRY_CODE":"US","OBJECT_ID":"2020-038AH","BSTAR":"0.00262000000000","CENTER_NAME":"EARTH","LAUNCH_DATE":"2020-06-13","CLASSIFICATION_TYPE":"U","REV_AT_EPOCH":"9344","SEMIMAJOR_AXIS":"6757.591","RA_OF_ASC_NODE":"15.3697","TIME_SYSTEM":"UTC","REF_FRAME":"TEME","PERIAPSIS":"378.230","EPHEMERIS_TYPE":"0","RCS_SIZE":"LARGE","GP_ID":"195485755","ELEMENT_SET_NO":"999","ECCENTRICITY":"0.00018150","NORAD_CAT_ID":"45761","FILE":"3294441","EPOCH":"2022-02-07T15:16:00.864768","MEAN_MOTION_DOT":"0.00247666","OBJECT_TYPE":"PAYLOAD","DECAY_DATE":null,"MEAN_MOTION_DDOT":"0.0000000000000","INCLINATION":"53.0541","ARG_OF_PERICENTER":"41.6893","MEAN_MOTION":"15.62841244","PERIOD":"92.140","MEAN_ELEMENT_THEORY":"SGP4","OBJECT_NAME":"STARLINK-1495","APOAPSIS":"380.683","TLE_LINE2":"2 45761  53.0541  15.3697 0001815  41.6893 318.4259 15.62841244 93449","SITE":"AFETR"},{"RA_OF_ASC_NODE":"70.9171","REF_FRAME":"TEME","TIME_SYSTEM":"UTC","RCS_SIZE":"LARGE","EPHEMERIS_TYPE":"0","PERIAPSIS":"546.187","COUNTRY_CODE":"US","BSTAR":"0.00002241000000","OBJECT_ID":"2020-038AJ","TLE_LINE1":"1 45762U 20038AJ  22038.48173284  .00000052  00000-0  22410-4 0  9999","MEAN_ANOMALY":"297.0362","SEMIMAJOR_AXIS":"6925.399","REV_AT_EPOCH":"9172","CLASSIFICATION_TYPE":"U","LAUNCH_DATE":"2020-06-13","CENTER_NAME":"EARTH","PERIOD":"95.593","MEAN_MOTION":"15.06383645","ARG_OF_PERICENTER":"63.0786","MEAN_ELEMENT_THEORY":"SGP4","TLE_LINE2":"2 45762  53.0547  70.9171 0001554  63.0786 297.0362 15.06383645 91729","SITE":"AFETR","APOAPSIS":"548.340","OBJECT_NAME":"STARLINK-1499","ECCENTRICITY":"0.00015540","ELEMENT_SET_NO":"999","GP_ID":"195479040","MEAN_MOTION_DOT":"0.00000052","EPOCH":"2022-02-07T11:33:41.717376","FILE":"3294379","NORAD_CAT_ID":"45762","OBJECT_TYPE":"PAYLOAD","INCLINATION":"53.0547","DECAY_DATE":null,"MEAN_MOTION_DDOT":"0.0000000000000"}];
